{"fetched_at":"2026-07-15T06:36:08.770Z","source":"https://celestrak.org/NORAD/elements/gp.php?NAME=ICEYE&FORMAT=JSON","constellation":"iceye","records":[{"OBJECT_NAME":"ICEYE-X53","OBJECT_ID":"2025-135BJ","EPOCH":"2026-07-14T23:00:11.646432","CLASSIFICATION_TYPE":"U","MEAN_MOTION":15.00891572,"ECCENTRICITY":0.00019023,"INCLINATION":97.7361,"RA_OF_ASC_NODE":312.6183,"ARG_OF_PERICENTER":165.4469,"MEAN_ANOMALY":194.681,"EPHEMERIS_TYPE":0,"NORAD_CAT_ID":64584,"ELEMENT_SET_NO":999,"REV_AT_EPOCH":5824,"BSTAR":0.00011522889,"MEAN_MOTION_DOT":0.00001406,"MEAN_MOTION_DDOT":0},{"OBJECT_NAME":"ICEYE-X65","OBJECT_ID":"2025-248H","EPOCH":"2026-07-14T12:15:29.088576","CLASSIFICATION_TYPE":"U","MEAN_MOTION":15.07925678,"ECCENTRICITY":0.00054849,"INCLINATION":45.4057,"RA_OF_ASC_NODE":350.4988,"ARG_OF_PERICENTER":195.6128,"MEAN_ANOMALY":164.4585,"EPHEMERIS_TYPE":0,"NORAD_CAT_ID":66300,"ELEMENT_SET_NO":999,"REV_AT_EPOCH":3964,"BSTAR":0.00012370467,"MEAN_MOTION_DOT":0.00001681,"MEAN_MOTION_DDOT":0},{"OBJECT_NAME":"ICEYE-X66","OBJECT_ID":"2025-248J","EPOCH":"2026-07-14T10:37:39.787968","CLASSIFICATION_TYPE":"U","MEAN_MOTION":15.09174059,"ECCENTRICITY":0.00051263,"INCLINATION":45.4024,"RA_OF_ASC_NODE":349.9449,"ARG_OF_PERICENTER":191.3181,"MEAN_ANOMALY":168.7587,"EPHEMERIS_TYPE":0,"NORAD_CAT_ID":66301,"ELEMENT_SET_NO":999,"REV_AT_EPOCH":3962,"BSTAR":0.0001279873,"MEAN_MOTION_DOT":0.00001814,"MEAN_MOTION_DDOT":0},{"OBJECT_NAME":"ICEYE-X67","OBJECT_ID":"2025-248K","EPOCH":"2026-07-14T11:13:11.732160","CLASSIFICATION_TYPE":"U","MEAN_MOTION":15.09156493,"ECCENTRICITY":0.00065632,"INCLINATION":45.406,"RA_OF_ASC_NODE":349.393,"ARG_OF_PERICENTER":191.3599,"MEAN_ANOMALY":168.7136,"EPHEMERIS_TYPE":0,"NORAD_CAT_ID":66302,"ELEMENT_SET_NO":999,"REV_AT_EPOCH":3964,"BSTAR":0.0001138946,"MEAN_MOTION_DOT":0.00001585,"MEAN_MOTION_DDOT":0},{"OBJECT_NAME":"ICEYE-X58","OBJECT_ID":"2025-276CP","EPOCH":"2026-07-14T18:02:47.329152","CLASSIFICATION_TYPE":"U","MEAN_MOTION":15.17305513,"ECCENTRICITY":0.00021312,"INCLINATION":97.4197,"RA_OF_ASC_NODE":268.6396,"ARG_OF_PERICENTER":215.2594,"MEAN_ANOMALY":144.8499,"EPHEMERIS_TYPE":0,"NORAD_CAT_ID":66751,"ELEMENT_SET_NO":999,"REV_AT_EPOCH":3459,"BSTAR":0.000073919979,"MEAN_MOTION_DOT":0.00001407,"MEAN_MOTION_DDOT":0},{"OBJECT_NAME":"ICEYE-X59","OBJECT_ID":"2025-276CQ","EPOCH":"2026-07-14T17:53:52.458720","CLASSIFICATION_TYPE":"U","MEAN_MOTION":15.00750601,"ECCENTRICITY":0.00009885,"INCLINATION":97.4391,"RA_OF_ASC_NODE":265.8651,"ARG_OF_PERICENTER":140.0387,"MEAN_ANOMALY":220.0911,"EPHEMERIS_TYPE":0,"NORAD_CAT_ID":66752,"ELEMENT_SET_NO":999,"REV_AT_EPOCH":3440,"BSTAR":0.00021837056,"MEAN_MOTION_DOT":0.00002713,"MEAN_MOTION_DDOT":0},{"OBJECT_NAME":"ICEYE-X60","OBJECT_ID":"2025-276CR","EPOCH":"2026-07-14T11:18:21.334464","CLASSIFICATION_TYPE":"U","MEAN_MOTION":15.10911363,"ECCENTRICITY":0.00022387,"INCLINATION":97.4254,"RA_OF_ASC_NODE":267.3325,"ARG_OF_PERICENTER":293.0305,"MEAN_ANOMALY":67.0689,"EPHEMERIS_TYPE":0,"NORAD_CAT_ID":66753,"ELEMENT_SET_NO":999,"REV_AT_EPOCH":3448,"BSTAR":0.00017596466,"MEAN_MOTION_DOT":0.00002869,"MEAN_MOTION_DDOT":0},{"OBJECT_NAME":"ICEYE-X61","OBJECT_ID":"2025-276CS","EPOCH":"2026-07-14T18:29:30.933888","CLASSIFICATION_TYPE":"U","MEAN_MOTION":15.18607366,"ECCENTRICITY":0.00020427,"INCLINATION":97.4194,"RA_OF_ASC_NODE":268.7465,"ARG_OF_PERICENTER":217.9427,"MEAN_ANOMALY":142.1664,"EPHEMERIS_TYPE":0,"NORAD_CAT_ID":66754,"ELEMENT_SET_NO":999,"REV_AT_EPOCH":3460,"BSTAR":0.000083363679,"MEAN_MOTION_DOT":0.00001657,"MEAN_MOTION_DDOT":0},{"OBJECT_NAME":"ICEYE-X62","OBJECT_ID":"2025-276CT","EPOCH":"2026-07-14T03:57:48.710304","CLASSIFICATION_TYPE":"U","MEAN_MOTION":15.10134811,"ECCENTRICITY":0.00010646,"INCLINATION":97.4198,"RA_OF_ASC_NODE":266.5267,"ARG_OF_PERICENTER":276.0122,"MEAN_ANOMALY":84.0986,"EPHEMERIS_TYPE":0,"NORAD_CAT_ID":66755,"ELEMENT_SET_NO":999,"REV_AT_EPOCH":3440,"BSTAR":0.000073696882,"MEAN_MOTION_DOT":0.0000114,"MEAN_MOTION_DDOT":0},{"OBJECT_NAME":"ICEYE-X63","OBJECT_ID":"2026-004K","EPOCH":"2026-07-14T21:58:09.660576","CLASSIFICATION_TYPE":"U","MEAN_MOTION":14.88348707,"ECCENTRICITY":0.00054291,"INCLINATION":97.8014,"RA_OF_ASC_NODE":194.1227,"ARG_OF_PERICENTER":52.733,"MEAN_ANOMALY":307.4382,"EPHEMERIS_TYPE":0,"NORAD_CAT_ID":67372,"ELEMENT_SET_NO":999,"REV_AT_EPOCH":2742,"BSTAR":0.00005429225,"MEAN_MOTION_DOT":0.00000448,"MEAN_MOTION_DDOT":0},{"OBJECT_NAME":"ICEYE-X64","OBJECT_ID":"2026-004L","EPOCH":"2026-07-14T23:08:12.324192","CLASSIFICATION_TYPE":"U","MEAN_MOTION":14.87986833,"ECCENTRICITY":0.0007253,"INCLINATION":97.8027,"RA_OF_ASC_NODE":194.0899,"ARG_OF_PERICENTER":54.687,"MEAN_ANOMALY":305.5024,"EPHEMERIS_TYPE":0,"NORAD_CAT_ID":67373,"ELEMENT_SET_NO":999,"REV_AT_EPOCH":2742,"BSTAR":0.000075158025,"MEAN_MOTION_DOT":0.00000635,"MEAN_MOTION_DDOT":0},{"OBJECT_NAME":"ICEYE-X71","OBJECT_ID":"2026-067CG","EPOCH":"2026-07-14T08:41:36.635712","CLASSIFICATION_TYPE":"U","MEAN_MOTION":14.91790708,"ECCENTRICITY":0.00010685,"INCLINATION":97.7625,"RA_OF_ASC_NODE":153.1825,"ARG_OF_PERICENTER":349.9955,"MEAN_ANOMALY":10.1242,"EPHEMERIS_TYPE":0,"NORAD_CAT_ID":68494,"ELEMENT_SET_NO":999,"REV_AT_EPOCH":1577,"BSTAR":0.00015178176,"MEAN_MOTION_DOT":0.00001475,"MEAN_MOTION_DDOT":0},{"OBJECT_NAME":"ICEYE-X73","OBJECT_ID":"2026-067CJ","EPOCH":"2026-07-14T20:37:48.074016","CLASSIFICATION_TYPE":"U","MEAN_MOTION":14.92347642,"ECCENTRICITY":0.00014886,"INCLINATION":97.7621,"RA_OF_ASC_NODE":153.7579,"ARG_OF_PERICENTER":148.8382,"MEAN_ANOMALY":211.2925,"EPHEMERIS_TYPE":0,"NORAD_CAT_ID":68496,"ELEMENT_SET_NO":999,"REV_AT_EPOCH":1585,"BSTAR":0.00010617694,"MEAN_MOTION_DOT":0.0000103,"MEAN_MOTION_DDOT":0},{"OBJECT_NAME":"ICEYE-X75","OBJECT_ID":"2026-067CK","EPOCH":"2026-07-14T20:44:11.995008","CLASSIFICATION_TYPE":"U","MEAN_MOTION":14.92173419,"ECCENTRICITY":0.00014117,"INCLINATION":97.7605,"RA_OF_ASC_NODE":153.7296,"ARG_OF_PERICENTER":145.5254,"MEAN_ANOMALY":214.6057,"EPHEMERIS_TYPE":0,"NORAD_CAT_ID":68497,"ELEMENT_SET_NO":999,"REV_AT_EPOCH":1585,"BSTAR":0.000035550196,"MEAN_MOTION_DOT":0.00000306,"MEAN_MOTION_DDOT":0},{"OBJECT_NAME":"ICEYE-X74","OBJECT_ID":"2026-067CN","EPOCH":"2026-07-14T21:33:04.075776","CLASSIFICATION_TYPE":"U","MEAN_MOTION":14.91792312,"ECCENTRICITY":0.0000865,"INCLINATION":97.7632,"RA_OF_ASC_NODE":153.7203,"ARG_OF_PERICENTER":344.1575,"MEAN_ANOMALY":15.9616,"EPHEMERIS_TYPE":0,"NORAD_CAT_ID":68500,"ELEMENT_SET_NO":999,"REV_AT_EPOCH":1585,"BSTAR":0.0001480686,"MEAN_MOTION_DOT":0.00001437,"MEAN_MOTION_DDOT":0},{"OBJECT_NAME":"ICEYE-X76","OBJECT_ID":"2026-067CQ","EPOCH":"2026-07-14T21:27:08.335872","CLASSIFICATION_TYPE":"U","MEAN_MOTION":14.91750383,"ECCENTRICITY":0.00005819,"INCLINATION":97.7639,"RA_OF_ASC_NODE":153.7343,"ARG_OF_PERICENTER":320.942,"MEAN_ANOMALY":39.1757,"EPHEMERIS_TYPE":0,"NORAD_CAT_ID":68502,"ELEMENT_SET_NO":999,"REV_AT_EPOCH":1585,"BSTAR":0.000071191217,"MEAN_MOTION_DOT":0.00000662,"MEAN_MOTION_DDOT":0}]}
